norad_id,name,regime,epoch,line1,line2,inclination,eccentricity,mean_motion,raan,arg_pericenter,mean_anomaly
19789,COSMOS 1998,LEO,25103.66416821,1 19789U 89009E   25103.66416821  .00000024  00000-0  69758-4 0    14,2 19789  82.6095 245.6523 0016357 176.6016 183.5191 12.64919797669714,82.6095,0.0016357,12.64919797,245.6523,176.6016,183.5191
19789,COSMOS 1998,LEO,25104.85060982,1 19789U 89009E   25104.85060982  .00000021  00000-0  56707-4 0    16,2 19789  82.6097 244.8947 0016412 173.9462 186.1832 12.64919769669860,82.6097,0.0016412,12.64919769,244.8947,173.9462,186.1832
19789,COSMOS 1998,LEO,25105.32518644,1 19789U 89009E   25105.32518644  .00000023  00000-0  66411-4 0    17,2 19789  82.6098 244.5918 0016433 172.8760 187.2569 12.64919786669923,82.6098,0.0016433,12.64919786,244.5918,172.876,187.2569
19789,COSMOS 1998,LEO,25105.87885913,1 19789U 89009E   25105.87885913  .00000029  00000-0  99866-4 0  2707,2 19789  82.6099 244.2383 0016458 171.6528 188.4842 12.64919827670175,82.6099,0.0016458,12.64919827,244.2383,171.6528,188.4842
19789,COSMOS 1998,LEO,25106.43253186,1 19789U 89009E   25106.43253186  .00000031  00000-0  11117-3 0    18,2 19789  82.6100 243.8848 0016481 170.4010 189.7401 12.64919840670066,82.61,0.0016481,12.6491984,243.8848,170.401,189.7401
19789,COSMOS 1998,LEO,25106.82801230,1 19789U 89009E   25106.82801230  .00000045  00000-0  18685-3 0    12,2 19789  82.6100 243.6323 0016500 169.5100 190.6340 12.64919918670118,82.61,0.00165,12.64919918,243.6323,169.51,190.634
19789,COSMOS 1998,LEO,25107.46078111,1 19789U 89009E   25107.46078111  .00000043  00000-0  17392-3 0    19,2 19789  82.6101 243.2284 0016526 168.0667 192.0820 12.64919916670196,82.6101,0.0016526,12.64919916,243.2284,168.0667,192.082
19789,COSMOS 1998,LEO,25107.85626162,1 19789U 89009E   25107.85626162  .00000042  00000-0  16675-3 0    19,2 19789  82.6102 242.9759 0016541 167.2115 192.9401 12.64919908670247,82.6102,0.0016541,12.64919908,242.9759,167.2115,192.9401
19789,COSMOS 1998,LEO,25108.40993427,1 19789U 89009E   25108.40993427  .00000041  00000-0  16163-3 0  2712,2 19789  82.6103 242.6224 0016565 165.9701 194.1855 12.64919932670495,82.6103,0.0016565,12.64919932,242.6224,165.9701,194.1855
19789,COSMOS 1998,LEO,25109.75456772,1 19789U 89009E   25109.75456772  .00000048  00000-0  20216-3 0    10,2 19789  82.6106 241.7641 0016623 163.0063 197.1589 12.64920016670487,82.6106,0.0016623,12.64920016,241.7641,163.0063,197.1589
19789,COSMOS 1998,LEO,25110.46643231,1 19789U 89009E   25110.46643231  .00000048  00000-0  19954-3 0  2725,2 19789  82.6107 241.3097 0016653 161.4674 198.7029 12.64920108670750,82.6107,0.0016653,12.64920108,241.3097,161.4674,198.7029
19789,COSMOS 1998,LEO,25110.78281660,1 19789U 89009E   25110.78281660  .00000048  00000-0  20131-3 0    13,2 19789  82.6108 241.1077 0016664 160.7898 199.3826 12.64920131670612,82.6108,0.0016664,12.64920131,241.1077,160.7898,199.3826
19789,COSMOS 1998,LEO,25111.41558513,1 19789U 89009E   25111.41558513  .00000046  00000-0  18923-3 0    12,2 19789  82.6109 240.7038 0016690 159.3947 200.7822 12.64920186670694,82.6109,0.001669,12.64920186,240.7038,159.3947,200.7822
19789,COSMOS 1998,LEO,25112.44383393,1 19789U 89009E   25112.44383393  .00000037  00000-0  14392-3 0    14,2 19789  82.6111 240.0474 0016731 157.1037 203.0805 12.64920243670822,82.6111,0.0016731,12.64920243,240.0474,157.1037,203.0805
19789,COSMOS 1998,LEO,25112.76021816,1 19789U 89009E   25112.76021816  .00000038  00000-0  14512-3 0    13,2 19789  82.6111 239.8455 0016743 156.4050 203.7814 12.64920274670862,82.6111,0.0016743,12.64920274,239.8455,156.405,203.7814
19789,COSMOS 1998,LEO,25113.70937089,1 19789U 89009E   25113.70937089  .00000028  00000-0  93906-4 0    10,2 19789  82.6113 239.2396 0016763 154.3608 205.8320 12.64920286670981,82.6113,0.0016763,12.64920286,239.2396,154.3608,205.832
19789,COSMOS 1998,LEO,25114.73761957,1 19789U 89009E   25114.73761957  .00000020  00000-0  49589-4 0    13,2 19789  82.6114 238.5833 0016800 152.1173 208.0823 12.64920312671114,82.6114,0.00168,12.64920312,238.5833,152.1173,208.0823
19789,COSMOS 1998,LEO,25115.44948398,1 19789U 89009E   25115.44948398  .00000016  00000-0  30393-4 0  2748,2 19789  82.6115 238.1290 0016824 150.5671 209.6372 12.64920362671389,82.6115,0.0016824,12.64920362,238.129,150.5671,209.6372
19789,COSMOS 1998,LEO,25115.60767606,1 19789U 89009E   25115.60767606  .00000018  00000-0  37905-4 0    13,2 19789  82.6115 238.0280 0016831 150.2375 209.9678 12.64920366671222,82.6115,0.0016831,12.64920366,238.028,150.2375,209.9678
19789,COSMOS 1998,LEO,25115.76586815,1 19789U 89009E   25115.76586815  .00000021  00000-0  54016-4 0    17,2 19789  82.6115 237.9270 0016835 149.8826 210.3238 12.64920401671248,82.6115,0.0016835,12.64920401,237.927,149.8826,210.3238
19789,COSMOS 1998,LEO,25116.79411673,1 19789U 89009E   25116.79411673  .00000022  00000-0  61452-4 0    13,2 19789  82.6117 237.2708 0016883 147.6104 212.6029 12.64920444671371,82.6117,0.0016883,12.64920444,237.2708,147.6104,212.6029
19789,COSMOS 1998,LEO,25117.42688505,1 19789U 89009E   25117.42688505  .00000025  00000-0  78106-4 0    11,2 19789  82.6118 236.8671 0016905 146.2156 214.0018 12.64920497671454,82.6118,0.0016905,12.64920497,236.8671,146.2156,214.0018
19789,COSMOS 1998,LEO,25117.74326923,1 19789U 89009E   25117.74326923  .00000029  00000-0  10009-3 0    10,2 19789  82.6119 236.6651 0016915 145.5340 214.6853 12.64920518671490,82.6119,0.0016915,12.64920518,236.6651,145.534,214.6853
19789,COSMOS 1998,LEO,25118.77151782,1 19789U 89009E   25118.77151782  .00000034  00000-0  12723-3 0    14,2 19789  82.6120 236.0089 0016954 143.2614 216.9644 12.64920534671629,82.612,0.0016954,12.64920534,236.0089,143.2614,216.9644
19789,COSMOS 1998,LEO,25121.77716692,1 19789U 89009E   25121.77716692  .00000049  00000-0  20638-3 0 77930,2 19789  82.6124 234.0908 0017055 136.7543 223.4892 12.64920670672004,82.6124,0.0017055,12.6492067,234.0908,136.7543,223.4892
19789,COSMOS 1998,LEO,25122.33083902,1 19789U 89009E   25122.33083902  .00000046  00000-0  19139-3 0    10,2 19789  82.6125 233.7375 0017072 135.5560 224.6905 12.64920698672079,82.6125,0.0017072,12.64920698,233.7375,135.556,224.6905
19789,COSMOS 1998,LEO,25122.80541504,1 19789U 89009E   25122.80541504  .00000047  00000-0  19580-3 0    10,2 19789  82.6126 233.4346 0017083 134.5830 225.6660 12.64920733672132,82.6126,0.0017083,12.64920733,233.4346,134.583,225.666
19789,COSMOS 1998,LEO,25123.59637508,1 19789U 89009E   25123.59637508  .00000045  00000-0  18449-3 0    18,2 19789  82.6126 232.9298 0017104 132.8875 227.3657 12.64920760672232,82.6126,0.0017104,12.6492076,232.9298,132.8875,227.3657
19789,COSMOS 1998,LEO,25123.83366309,1 19789U 89009E   25123.83366309  .00000042  00000-0  16712-3 0  2776,2 19789  82.6126 232.7784 0017109 132.3807 227.8737 12.64920767672449,82.6126,0.0017109,12.64920767,232.7784,132.3807,227.8737
19789,COSMOS 1998,LEO,25124.54552698,1 19789U 89009E   25124.54552698  .00000039  00000-0  15299-3 0    13,2 19789  82.6127 232.3241 0017123 130.8737 229.3843 12.64920825672355,82.6127,0.0017123,12.64920825,232.3241,130.8737,229.3843
19789,COSMOS 1998,LEO,25124.78281496,1 19789U 89009E   25124.78281496  .00000034  00000-0  12634-3 0    19,2 19789  82.6128 232.1727 0017124 130.3781 229.8810 12.64920827672382,82.6128,0.0017124,12.64920827,232.1727,130.3781,229.881
19789,COSMOS 1998,LEO,25125.81106277,1 19789U 89009E   25125.81106277  .00000029  00000-0  10035-3 0    14,2 19789  82.6128 231.5166 0017150 128.1806 232.0834 12.64920890672511,82.6128,0.001715,12.6492089,231.5166,128.1806,232.0834
19789,COSMOS 1998,LEO,25126.04835074,1 19789U 89009E   25126.04835074  .00000027  00000-0  87439-4 0  2781,2 19789  82.6128 231.3652 0017156 127.6713 232.5939 12.64920878672726,82.6128,0.0017156,12.64920878,231.3652,127.6713,232.5939
19789,COSMOS 1998,LEO,25126.76021455,1 19789U 89009E   25126.76021455  .00000022  00000-0  57809-4 0    17,2 19789  82.6129 230.9109 0017168 126.1758 234.0925 12.64920906672639,82.6129,0.0017168,12.64920906,230.9109,126.1758,234.0925
19789,COSMOS 1998,LEO,25127.78846228,1 19789U 89009E   25127.78846228  .00000014  00000-0  15745-4 0    17,2 19789  82.6129 230.2548 0017189 123.9741 236.2988 12.64920921672763,82.6129,0.0017189,12.64920921,230.2548,123.9741,236.2988
19789,COSMOS 1998,LEO,25128.34213414,1 19789U 89009E   25128.34213414  .00000011  00000-0 -82082-6 0  2790,2 19789  82.6129 229.9016 0017203 122.7817 237.4935 12.64920912673010,82.6129,0.0017203,12.64920912,229.9016,122.7817,237.4935
19789,COSMOS 1998,LEO,25128.73761404,1 19789U 89009E   25128.73761404  .00000008  00000-0 -17000-4 0    15,2 19789  82.6130 229.6492 0017212 121.9078 238.3692 12.64920895672881,82.613,0.0017212,12.64920895,229.6492,121.9078,238.3692
19789,COSMOS 1998,LEO,25129.29128586,1 19789U 89009E   25129.29128586  .00000005  00000-0 -31239-4 0    12,2 19789  82.6130 229.2960 0017225 120.7137 239.5655 12.64920893672952,82.613,0.0017225,12.64920893,229.296,120.7137,239.5655
19789,COSMOS 1998,LEO,25129.76586165,1 19789U 89009E   25129.76586165  .00000013  00000-0  95484-5 0    16,2 19789  82.6130 228.9931 0017229 119.7285 240.5525 12.64920935673015,82.613,0.0017229,12.64920935,228.9931,119.7285,240.5525
19789,COSMOS 1998,LEO,25130.55682144,1 19789U 89009E   25130.55682144  .00000013  00000-0  12752-4 0    15,2 19789  82.6130 228.4884 0017250 117.9706 242.3135 12.64920907673116,82.613,0.001725,12.64920907,228.4884,117.9706,242.3135
19789,COSMOS 1998,LEO,25130.71501339,1 19789U 89009E   25130.71501339  .00000015  00000-0  20693-4 0    14,2 19789  82.6130 228.3875 0017254 117.6342 242.6504 12.64920915673136,82.613,0.0017254,12.64920915,228.3875,117.6342,242.6504
19789,COSMOS 1998,LEO,25131.34778111,1 19789U 89009E   25131.34778111  .00000017  00000-0  32831-4 0    17,2 19789  82.6130 227.9838 0017268 116.2714 244.0155 12.64920924673210,82.613,0.0017268,12.64920924,227.9838,116.2714,244.0155
